KUIPER-00008            
1 63724U 25088A   25254.54291253  .00004960  00000+0  42493-3 0  9997
2 63724  51.8899 183.7860 0010596 212.7376 147.2938 14.99086631 21189
KUIPER-00009            
1 63725U 25088B   25254.49123286  .00001298  00000+0  19938-3 0  9991
2 63725  51.9014 179.0177 0011752 229.1053 130.8892 14.79938196 21242
KUIPER-00010            
1 63726U 25088C   25254.91670139 -.00823194  00000+0 -29328-1 0  9994
2 63726  51.8656 162.2053 0010908 243.6432 129.5794 15.30859132  5467
KUIPER-00011            
1 63727U 25088D   25254.91670139 -.00885083  00000+0 -51930-1 0  9994
2 63727  51.8792 164.4404 0009057 235.6845  13.5332 15.13887920  5642
KUIPER-00012            
1 63728U 25088E   25254.91670139 -.00819026  00000+0 -31036-1 0  9994
2 63728  51.8599 162.5813 0008818 230.4104 255.4576 15.28893722  5668
KUIPER-00013            
1 63729U 25088F   25254.49010566 -.00009198  00000+0 -11777-2 0  9992
2 63729  51.9013 180.4866 0008269 161.3244 198.8024 14.79949707 21032
KUIPER-00014            
1 63730U 25088G   25254.48846502  .00001961  00000+0  28610-3 0  9993
2 63730  51.9024 181.4595 0008302 219.5118 140.5240 14.79964285 20839
KUIPER-00015            
1 63731U 25088H   25254.56468487  .00002163  00000+0  30276-3 0  9991
2 63731  51.9009 193.2101 0010034 202.4503 157.6022 14.81340450 21137
